[{"OBJECT_NAME":"NUSAT-35 (WILLIAMINA)","OBJECT_ID":"2023-001AR","EPOCH":"2026-03-09T22:28:40.425600","MEAN_MOTION":15.3245616,"ECCENTRICITY":0.00136635,"INCLINATION":97.1993,"RA_OF_ASC_NODE":124.278,"ARG_OF_PERICENTER":97.0313,"MEAN_ANOMALY":263.2484,"EPHEMERIS_TYPE":0,"CLASSIFICATION_TYPE":"U","NORAD_CAT_ID":55048,"ELEMENT_SET_NO":999,"REV_AT_EPOCH":17719,"BSTAR":0.00053479647,"MEAN_MOTION_DOT":0.0001675,"MEAN_MOTION_DDOT":0},{"OBJECT_NAME":"STARLINK-32654","OBJECT_ID":"2024-239X","EPOCH":"2026-03-09T14:39:54.375264","MEAN_MOTION":15.30193069,"ECCENTRICITY":0.0001109,"INCLINATION":53.1603,"RA_OF_ASC_NODE":194.157,"ARG_OF_PERICENTER":56.0007,"MEAN_ANOMALY":304.1099,"EPHEMERIS_TYPE":0,"CLASSIFICATION_TYPE":"U","NORAD_CAT_ID":62322,"ELEMENT_SET_NO":999,"REV_AT_EPOCH":6937,"BSTAR":0.00099922,"MEAN_MOTION_DOT":0.00029345,"MEAN_MOTION_DDOT":0}]
